[{"OBJECT_NAME":"HIBARI","OBJECT_ID":"2021-102F","EPOCH":"2026-03-09T16:55:51.090816","MEAN_MOTION":15.29554512,"ECCENTRICITY":0.00120742,"INCLINATION":97.3381,"RA_OF_ASC_NODE":115.826,"ARG_OF_PERICENTER":186.5211,"MEAN_ANOMALY":173.5875,"EPHEMERIS_TYPE":0,"CLASSIFICATION_TYPE":"U","NORAD_CAT_ID":49400,"ELEMENT_SET_NO":999,"REV_AT_EPOCH":23897,"BSTAR":0.00042758039,"MEAN_MOTION_DOT":0.00012206,"MEAN_MOTION_DDOT":0},{"OBJECT_NAME":"STARLINK-31358","OBJECT_ID":"2024-031N","EPOCH":"2026-03-09T20:41:18.660192","MEAN_MOTION":15.30215488,"ECCENTRICITY":0.00011369,"INCLINATION":53.1603,"RA_OF_ASC_NODE":295.5891,"ARG_OF_PERICENTER":106.8746,"MEAN_ANOMALY":253.2379,"EPHEMERIS_TYPE":0,"CLASSIFICATION_TYPE":"U","NORAD_CAT_ID":58977,"ELEMENT_SET_NO":999,"REV_AT_EPOCH":11654,"BSTAR":0.00025656973,"MEAN_MOTION_DOT":7.251e-5,"MEAN_MOTION_DDOT":0}]
